ADRAS-J                 
1 58992U 24034A   24113.97950972  .00008454  00000+0  79660-3 0  9996
2 58992  98.2081  84.5375 0043014 229.0232 130.7262 14.93384469  9626
